DMSP 5D-3 F16 (USA 172) 
1 28054U 03048A   26181.82700325  .00000005  00000+0  26481-4 0  9998
2 28054  98.9886 205.7453 0008166 106.3509   6.9621 14.14484155171415
METEOSAT-9 (MSG-2)      
1 28912U 05049B   26181.73820330  .00000127  00000+0  00000+0 0  9992
2 28912   9.3903  54.0333 0001827   1.4312 174.9175  1.00279300  7132
DMSP 5D-3 F17 (USA 191) 
1 29522U 06050A   26181.81696775  .00000027  00000+0  36220-4 0  9993
2 29522  98.7379 188.1081 0010591  23.4317 336.7337 14.14994752 14359
FENGYUN 3A              
1 32958U 08026A   26181.36871077  .00000065  00000+0  51551-4 0  9991
2 32958  98.6885 121.9554 0009884  89.7733 270.4576 14.19573724937278
GOES 14                 
1 35491U 09033A   26181.82689116 -.00000325  00000+0  00000+0 0  9995
2 35491   1.7235  82.8906 0002276  23.5593 243.9584  1.00106450  6726
DMSP 5D-3 F18 (USA 210) 
1 35951U 09057A   26181.78922980  .00000262  00000+0  15854-3 0  9992
2 35951  98.9044 162.5291 0010381 207.2926 152.7702 14.14904328861517
EWS-G2 (GOES 15)        
1 36411U 10008A   26181.81293777  .00000030  00000+0  00000+0 0  9997
2 36411   1.3134  82.6615 0005392  44.6964 147.6735  1.00268263 59778
COMS 1                  
1 36744U 10032A   26181.80416729 -.00000044  00000+0  00000+0 0  9992
2 36744   4.8382  75.1972 0011864  13.5533 138.8109  0.99168462 51227
FENGYUN 3B              
1 37214U 10059A   26181.89220223 -.00000288  00000+0 -12570-3 0  9995
2 37214  98.9616 227.9642 0022625 145.4409 328.9186 14.14843352809362
SUOMI NPP               
1 37849U 11061A   26181.80336992  .00000067  00000+0  52778-4 0  9993
2 37849  98.7955 122.5865 0000784 320.8945  39.2175 14.19520065760378
METEOSAT-10 (MSG-3)     
1 38552U 12035B   26181.80044064  .00000001  00000+0  00000+0 0  9997
2 38552   4.7021  60.9556 0001675  13.8848 132.3208  1.00269307 50991
METOP-B                 
1 38771U 12049A   26181.77508199  .00000105  00000+0  67997-4 0  9993
2 38771  98.6498 233.0028 0001404 335.7494  24.3617 14.21442962715195
INSAT-3D                
1 39216U 13038B   26181.82602448 -.00000330  00000+0  00000+0 0  9993
2 39216   1.9597  82.3824 0001132  10.7143 252.6687  1.00269860 47216
FENGYUN 3C              
1 39260U 13052A   26181.89580314  .00000074  00000+0  58558-4 0  9992
2 39260  98.4987 155.1415 0014446 348.8654  11.2199 14.15758007660504
METEOR-M 2              
1 40069U 14037A   26181.87164144 -.00000336  00000+0 -13456-3 0  9992
2 40069  98.5116 157.1256 0006061   9.3543 350.7747 14.21463828621264
HIMAWARI-8              
1 40267U 14060A   26181.82819117 -.00000265  00000+0  00000+0 0  9997
2 40267   0.0179  10.8288 0001114  89.9992 256.8861  1.00272768 42890
FENGYUN 2G              
1 40367U 14090A   26181.60626499 -.00000295  00000+0  00000+0 0  9999
2 40367   5.6718  72.6578 0003613 150.2358  13.6327  1.00267570 42131
METEOSAT-11 (MSG-4)     
1 40732U 15034A   26181.80217397  .00000070  00000+0  00000+0 0  9999
2 40732   3.2346  71.0256 0002227 348.3557 157.6180  1.00267341  7352
ELEKTRO-L 2             
1 41105U 15074A   26181.12866027 -.00000112  00000+0  00000+0 0  9991
2 41105   6.7257  70.3668 0000706 276.5342 323.0657  1.00271247 38632
SENTINEL-3A             
1 41335U 16011A   26181.82176718  .00000122  00000+0  68296-4 0  9992
2 41335  98.6245 249.0093 0001429  95.2641 264.8703 14.26736354540002
INSAT-3DR               
1 41752U 16054A   26181.81501778 -.00000066  00000+0  00000+0 0  9991
2 41752   0.1387  85.9787 0010054 186.6033  13.6813  1.00272402 35953
HIMAWARI-9              
1 41836U 16064A   26181.68564565 -.00000265  00000+0  00000+0 0  9994
2 41836   0.0355 265.4116 0001466 222.5242 178.3897  1.00269249 35349
GOES 16                 
1 41866U 16071A   26181.70826575 -.00000081  00000+0  00000+0 0  9996
2 41866   0.3732  85.5219 0000594  21.9495 321.5863  1.00272105 35239
FENGYUN 4A              
1 41882U 16077A   26181.82489782 -.00000348  00000+0  00000+0 0  9994
2 41882   2.3560  80.1415 0007920 158.0711 101.3415  1.00277086 35061
CYGFM05                 
1 41884U 16078A   26181.38810848  .00021122  00000+0  28033-3 0  9991
2 41884  34.9549 173.1377 0008187 267.4609  92.5178 15.57216832530817
CYGFM04                 
1 41885U 16078B   26181.31707171  .00028252  00000+0  30919-3 0  9996
2 41885  34.9312 140.6278 0006924 302.1921  57.8133 15.62226848531052
CYGFM02                 
1 41886U 16078C   26181.29213910  .00033447  00000+0  32319-3 0  9995
2 41886  34.9393 134.9390 0007838 304.6437  55.3551 15.65341235531224
CYGFM01                 
1 41887U 16078D   26181.37098475  .00021563  00000+0  27877-3 0  9991
2 41887  34.9380 174.2001 0008036 262.0465  97.9347 15.57911705530765
CYGFM08                 
1 41888U 16078E   26181.30754344  .00025810  00000+0  29995-3 0  9991
2 41888  34.9415 153.8484 0008933 289.9653  70.0110 15.60672291531024
CYGFM07                 
1 41890U 16078G   26181.26587102  .00026501  00000+0  30692-3 0  9999
2 41890  34.9434 142.4565 0007329 301.9501  58.0511 15.60774517531044
CYGFM03                 
1 41891U 16078H   26181.23694127  .00026133  00000+0  30281-3 0  9998
2 41891  34.9389 144.5826 0007175 289.6202  70.3749 15.60764318531011
